MEAN_MOTION;ECCENTRICITY;INCLINATION;RA_OF_ASC_NODE;ARG_OF_PERICENTER;MEAN_ANOMALY;BSTAR;MEAN_MOTION_DOT;MEAN_MOTION_DDOT;TYPE
14.96542264;0.001623;98.1232;352.0815;133.1819;227.076;8.9894E-5;9.61E-6;0;Amateur
14.96543949;0.0016264;98.1233;353.1224;129.9776;230.2875;7.7967E-5;8.25E-6;0;Amateur
14.96546166;0.00163;98.1233;354.1633;126.8131;233.4587;7.156E-5;7.52E-6;0;Amateur
14.96547081;0.0016322;98.1234;354.7878;124.9112;235.3644;6.2653E-5;6.5E-6;0;Amateur
14.96547673;0.0016323;98.1234;355.2042;123.6811;236.5968;5.7115E-5;5.87E-6;0;Amateur
14.96548669;0.0016324;98.1234;356.1063;121.0201;239.2624;4.2699E-5;4.23E-6;0;Amateur
14.96548822;0.0016326;98.1234;356.2451;120.5951;239.6882;4.08E-5;4.01E-6;0;Amateur
14.9654965;0.0016309;98.1233;357.286;117.5358;242.7522;2.5675E-5;2.29E-6;0;Amateur
14.9655007;0.0016302;98.1232;358.3268;114.4841;245.8082;1.3176E-5;8.6E-7;0;Amateur
14.96550592;0.001629;98.1231;359.5064;111.1074;249.189;8.9095E-6;3.8E-7;0;Amateur
14.96550128;0.001628;98.123;0.4085;108.5525;251.7466;-2.661E-6;-9.4E-7;0;Amateur
14.96550244;0.0016279;98.1229;0.8942;107.1741;253.1263;-1.1925E-6;-7.7E-7;0;Amateur
14.96550244;0.0016273;98.1228;1.4493;105.5962;254.7056;-1.188E-7;-6.5E-7;0;Amateur
14.96550307;0.0016275;98.1227;1.935;104.2229;256.08;2.1391E-6;-3.9E-7;0;Amateur
14.96550851;0.0016269;98.1226;2.4901;102.6516;257.6524;1.2344E-5;7.7E-7;0;Amateur
14.96551001;0.0016276;98.1225;2.9758;101.2827;259.0223;1.6455E-5;1.24E-6;0;Amateur
14.96551147;0.0016277;98.1224;3.5308;99.709;260.597;1.9674E-5;1.61E-6;0;Amateur
14.96551397;0.0016296;98.1223;4.0165;98.3424;261.9644;2.479E-5;2.19E-6;0;Amateur
14.9655155;0.0016295;98.1223;4.3634;97.3742;262.9331;2.7377E-5;2.48E-6;0;Amateur
14.96551663;0.0016303;98.1222;4.7103;96.4139;263.8938;2.8939E-5;2.66E-6;0;Amateur
14.96551966;0.0016319;98.1222;5.2654;94.8523;265.4561;3.3294E-5;3.16E-6;0;Amateur
14.96552249;0.0016324;98.1222;5.4735;94.2569;266.0517;3.6513E-5;3.53E-6;0;Amateur
14.96552337;0.0016334;98.1222;5.7511;93.4775;266.8314;3.7013E-5;3.58E-6;0;Amateur
14.96552727;0.0016358;98.1221;6.3755;91.7196;268.5898;4.0693E-5;4.0E-6;0;Amateur
14.96552668;0.0016356;98.1221;6.4449;91.524;268.7854;3.9611E-5;3.88E-6;0;Amateur
14.9655291;0.0016365;98.1221;6.7918;90.5451;269.7645;4.0812E-5;4.02E-6;0;Amateur
14.96553321;0.0016398;98.1221;7.4162;88.7851;271.5248;4.3475E-5;4.32E-6;0;Amateur
14.96553634;0.0016409;98.1222;7.7632;87.8019;272.508;4.5135E-5;4.51E-6;0;Amateur
14.96554313;0.0016442;98.1222;8.457;85.8373;274.4726;4.9853E-5;5.05E-6;0;Amateur
14.96554748;0.0016455;98.1222;8.8039;84.8546;275.4552;5.2477E-5;5.35E-6;0;Amateur
14.96555738;0.0016495;98.1223;9.4977;82.8894;277.4201;5.9926E-5;6.2E-6;0;Amateur
14.96556457;0.0016512;98.1224;9.9141;81.6938;278.6154;6.4999E-5;6.77E-6;0;Amateur
14.96557354;0.001655;98.1225;10.5385;79.91;280.3987;7.0494E-5;7.4E-6;0;Amateur
14.96557888;0.0016566;98.1225;10.9548;78.7187;281.5893;7.129E-5;7.49E-6;0;Amateur
14.96559537;0.0016597;98.1226;11.6487;76.7269;283.5801;8.4164E-5;8.96E-6;0;Amateur
14.96561949;0.0016641;98.1228;12.8283;73.3045;287.0001;9.5578E-5;1.026E-5;0;Amateur
14.96564113;0.0016674;98.1229;13.7303;70.6833;289.6189;0.00010509;1.135E-5;0;Amateur
14.9656443;0.0016671;98.1229;13.8691;70.2638;290.0378;0.00010557;1.14E-5;0;Amateur
14.96565923;0.001669;98.123;14.4936;68.4473;291.8524;0.00010948;1.185E-5;0;Amateur
14.96567028;0.0016697;98.123;15.0487;66.8037;293.494;0.00010824;1.171E-5;0;Amateur
14.96567279;0.0016707;98.123;15.1875;66.4048;293.8924;0.00010758;1.163E-5;0;Amateur
14.96570318;0.0016714;98.123;16.5753;62.2726;298.0187;0.00010178;1.097E-5;0;Amateur
14.96571308;0.0016703;98.123;16.9916;60.9981;299.2911;9.9955E-5;1.077E-5;0;Amateur
14.96573203;0.001669;98.123;17.6855;58.9051;301.3805;9.9786E-5;1.075E-5;0;Amateur
14.96574465;0.001668;98.123;18.2406;57.2259;303.0566;9.4713E-5;1.017E-5;0;Amateur
14.96575493;0.0016667;98.123;18.657;55.9662;304.3139;9.2317E-5;9.9E-6;0;Amateur
14.96578083;0.0016625;98.123;19.6979;52.7807;307.4927;8.6004E-5;9.17E-6;0;Amateur
14.96578698;0.0016599;98.1229;20.1142;51.5041;308.7665;7.8097E-5;8.27E-6;0;Amateur
14.96580158;0.0016551;98.1229;20.9469;48.9314;311.3333;6.7067E-5;7.01E-6;0;Amateur
14.9658045;0.0016538;98.1229;21.1551;48.2848;311.9783;6.3491E-5;6.61E-6;0;Amateur
14.9658136;0.001648;98.1229;21.9877;45.6877;314.5691;4.8895E-5;4.94E-6;0;Amateur
14.96581627;0.0016461;98.1229;22.2653;44.8262;315.4285;4.4209E-5;4.41E-6;0;Amateur
14.96582185;0.0016381;98.1228;23.2367;41.8029;318.444;2.7745E-5;2.53E-6;0;Amateur
14.96582822;0.0016285;98.1228;24.2776;38.5606;321.6774;1.8176E-5;1.43E-6;0;Amateur
14.96582808;0.001618;98.1226;25.3184;35.2907;324.9381;7.329E-6;2.0E-7;0;Amateur
14.96583244;0.0016077;98.1226;26.3592;32.0344;328.185;8.5687E-6;3.4E-7;0;Amateur
14.96583734;0.0015965;98.1225;27.4;28.8182;331.3917;1.4469E-5;1.01E-6;0;Amateur
14.96584274;0.0015857;98.1223;28.4407;25.6381;334.5622;2.188E-5;1.86E-6;0;Amateur
14.96584965;0.0015751;98.1222;29.4815;22.4688;337.7219;3.0399E-5;2.83E-6;0;Amateur
14.96585812;0.0015642;98.1221;30.5223;19.3349;340.8461;3.8767E-5;3.78E-6;0;Amateur
14.96586758;0.0015545;98.122;31.5631;16.263;343.9086;4.6362E-5;4.65E-6;0;Amateur
14.96587445;0.0015471;98.1219;32.3263;14.0066;346.158;5.0863E-5;5.16E-6;0;Amateur
14.96587725;0.0015449;98.1219;32.6038;13.1898;346.9723;5.2116E-5;5.31E-6;0;Amateur
14.96588645;0.0015405;98.122;33.0895;11.767;348.3907;6.0472E-5;6.26E-6;0;Amateur
14.96589825;0.0015303;98.122;34.1996;8.5137;351.634;6.4629E-5;6.73E-6;0;Amateur
14.96590008;0.0015291;98.122;34.3384;8.111;352.0354;6.5613E-5;6.85E-6;0;Amateur
14.96590568;0.0015261;98.122;34.6853;7.1082;353.0352;6.8511E-5;7.18E-6;0;Amateur
14.9659122;0.0015209;98.122;35.3098;5.3118;354.8261;6.9304E-5;7.27E-6;0;Amateur
14.96591919;0.0015184;98.1221;35.7261;4.0697;356.0644;7.2735E-5;7.66E-6;0;Amateur
14.96593798;0.0015105;98.1222;36.8363;0.8356;359.2887;8.1001E-5;8.6E-6;0;Amateur
14.96595602;0.0015019;98.1224;37.877;357.7517;2.3633;8.716E-5;9.31E-6;0;Amateur
14.96597175;0.0014958;98.1226;38.7097;355.2478;4.8598;9.1867E-5;9.84E-6;0;Amateur
14.96597758;0.0014936;98.1227;39.0567;354.2332;5.8714;9.2067E-5;9.87E-6;0;Amateur
14.96599257;0.001488;98.1228;39.82;351.928;8.1698;9.4435E-5;1.014E-5;0;Amateur
14.96600932;0.0014825;98.1229;40.6527;349.3791;10.7114;9.5939E-5;1.031E-5;0;Amateur
14.96601346;0.0014816;98.123;40.8609;348.7201;11.3685;9.5475E-5;1.025E-5;0;Amateur
14.9660296;0.0014774;98.1231;41.4854;346.7854;13.2977;9.8601E-5;1.061E-5;0;Amateur
14.96603619;0.001475;98.1231;41.9018;345.4595;14.6198;9.4594E-5;1.015E-5;0;Amateur
14.96605035;0.00147;98.1232;42.804;342.5912;17.4802;8.4477E-5;9.0E-6;0;Amateur
14.96605322;0.0014698;98.1232;42.9428;342.1412;17.929;8.3497E-5;8.89E-6;0;Amateur
14.96606903;0.0014652;98.1232;43.8449;339.2072;20.8551;7.4048E-5;7.81E-6;0;Amateur
14.96607182;0.0014646;98.1232;43.9837;338.7446;21.3164;7.2881E-5;7.68E-6;0;Amateur
14.96608628;0.0014578;98.1231;45.094;335.0423;25.0091;5.43E-5;5.56E-6;0;Amateur
14.96609806;0.0014539;98.1231;46.1349;331.5447;28.4978;3.8009E-5;3.7E-6;0;Amateur
14.96610819;0.0014505;98.123;47.1064;328.2122;31.8221;2.6283E-5;2.36E-6;0;Amateur
14.96611206;0.0014483;98.123;47.5922;326.5342;33.4962;2.0319E-5;1.68E-6;0;Amateur
14.96611507;0.001444;98.1228;48.6331;322.8905;37.1316;6.4546E-6;1.0E-7;0;Amateur
14.96611947;0.0014429;98.1227;49.1188;321.178;38.8403;7.6457E-6;2.3E-7;0;Amateur
14.96611965;0.0014408;98.1227;49.8127;318.725;41.288;1.6859E-6;-4.5E-7;0;Amateur
14.9661202;0.0014392;98.1226;50.2985;316.9825;43.0269;2.6136E-8;-6.4E-7;0;Amateur
14.96612351;0.0014361;98.1225;51.0617;314.2568;45.7473;2.5654E-6;-3.5E-7;0;Amateur
14.96612457;0.0014359;98.1225;51.3393;313.2484;46.7537;3.2956E-6;-2.7E-7;0;Amateur
14.96614019;0.0014324;98.1224;52.1026;310.543;49.4542;2.4042E-5;2.1E-6;0;Amateur
14.96613431;0.0014315;98.1224;52.3802;309.5384;50.4571;1.4035E-5;9.6E-7;0;Amateur
14.96614286;0.0014263;98.1223;53.421;305.8097;54.1797;2.4021E-5;2.1E-6;0;Amateur
14.96616157;0.0014201;98.1222;54.4618;302.1034;57.8807;4.504E-5;4.5E-6;0;Amateur
14.9661632;0.0014183;98.1222;54.67;301.3558;58.6273;4.5944E-5;4.6E-6;0;Amateur
14.96617091;0.001413;98.1222;55.5026;298.3694;61.6101;4.8259E-5;4.87E-6;0;Amateur
14.96617709;0.0014087;98.1221;56.0578;296.3925;63.5849;5.1302E-5;5.21E-6;0;Amateur
14.96618003;0.0014051;98.1221;56.5435;294.65;65.3257;4.9295E-5;4.99E-6;0;Amateur
14.9661886;0.0013992;98.1221;57.2373;292.1636;67.8099;5.2663E-5;5.37E-6;0;Amateur
14.96619239;0.0013964;98.1221;57.5843;290.9293;69.0432;5.2624E-5;5.37E-6;0;Amateur
14.96620397;0.0013882;98.1221;58.6251;287.2229;72.7472;5.4397E-5;5.57E-6;0;Amateur
14.96621734;0.0013797;98.1222;59.6659;283.5417;76.4266;5.8365E-5;6.02E-6;0;Amateur
14.96623028;0.0013735;98.1222;60.4292;280.8559;79.1115;6.5842E-5;6.87E-6;0;Amateur
14.9662338;0.0013724;98.1223;60.6374;280.1427;79.8245;6.7231E-5;7.03E-6;0;Amateur
14.96624096;0.0013674;98.1223;61.1925;278.1887;81.7782;6.8755E-5;7.21E-6;0;Amateur
14.96624892;0.0013636;98.1224;61.7476;276.2572;83.7094;7.1281E-5;7.5E-6;0;Amateur
14.9662559;0.0013596;98.1224;62.2334;274.5534;85.4133;7.3262E-5;7.72E-6;0;Amateur
14.96627412;0.0013525;98.1225;63.2743;270.9276;89.0395;8.0869E-5;8.59E-6;0;Amateur
14.96628357;0.0013496;98.1225;63.8294;268.9849;90.9825;8.3303E-5;8.87E-6;0;Amateur
14.96629636;0.0013461;98.1226;64.5234;266.5751;93.393;8.6979E-5;9.29E-6;0;Amateur
14.96630007;0.0013451;98.1226;64.7315;265.8488;94.1195;8.73E-5;9.33E-6;0;Amateur
14.96631323;0.0013415;98.1227;65.5643;262.9535;97.0159;8.5854E-5;9.16E-6;0;Amateur
14.96631671;0.0013407;98.1227;65.7725;262.2248;97.745;8.53E-5;9.1E-6;0;Amateur
14.96633379;0.0013387;98.1228;66.8134;258.6436;101.3281;8.096E-5;8.6E-6;0;Amateur
14.96635215;0.0013382;98.123;67.8544;255.0582;104.9156;7.6238E-5;8.06E-6;0;Amateur
14.96636755;0.0013393;98.1231;68.8954;251.4807;108.4959;6.5023E-5;6.78E-6;0;Amateur
14.9663866;0.0013412;98.1231;69.9364;247.9039;112.0758;5.8924E-5;6.09E-6;0;Amateur
14.96639824;0.0013471;98.1232;71.0467;244.1973;115.7858;4.0921E-5;4.03E-6;0;Amateur
